{"type": "FeatureCollection", "features": [ {"type": "Feature", "properties": {"norad_id": 35888, "name": "COSMOS 2251 DEB", "group": "cosmos-2251-debris", "lat": -16.14498777184808, "lon": 174.75617304728024, "alt_km": 694.346492048011, "timestamp": "2025-12-16T05:49:09.610091+00:00", "meta": {"OBJECT_NAME": "COSMOS 2251 DEB", "OBJECT_ID": "1993-036AUB", "EPOCH": "2025-12-13T17:39:16.507872", "MEAN_MOTION": 14.58323448, "ECCENTRICITY": 0.00481838, "INCLINATION": 74.0339, "RA_OF_ASC_NODE": 354.7717, "ARG_OF_PERICENTER": 126.5849, "MEAN_ANOMALY": 233.9764, "EPHEMERIS_TYPE": 0, "CLASSIFICATION_TYPE": "U", "NORAD_CAT_ID": 35888, "ELEMENT_SET_NO": 999, "REV_AT_EPOCH": 86288, "BSTAR": 0.00051301683, "MEAN_MOTION_DOT": 2.383e-05, "MEAN_MOTION_DDOT": 0}, "tle": {"line1": "1 35888U 93036AUB 25347.73560773  .00002383  00000+0  51302-3 0  9991", "line2": "2 35888  74.0339 354.7717 0048183 126.5849 233.9764 14.58323448862881"}}, "geometry": {"type": "Point", "coordinates": [174.75617304728024, -16.14498777184808]}}, {"type": "Feature", "properties": {"norad_id": 35890, "name": "COSMOS 2251 DEB", "group": "cosmos-2251-debris", "lat": -45.312798955386576, "lon": 72.93866644068697, "alt_km": 733.0731548212907, "timestamp": "2025-12-16T05:49:09.610101+00:00", "meta": {"OBJECT_NAME": "COSMOS 2251 DEB", "OBJECT_ID": "1993-036AUD", "EPOCH": "2025-12-14T23:07:29.810208", "MEAN_MOTION": 14.57520492, "ECCENTRICITY": 0.00538424, "INCLINATION": 73.9366, "RA_OF_ASC_NODE": 238.4477, "ARG_OF_PERICENTER": 2.6653, "MEAN_ANOMALY": 357.4787, "EPHEMERIS_TYPE": 0, "CLASSIFICATION_TYPE": "U", "NORAD_CAT_ID": 35890, "ELEMENT_SET_NO": 999, "REV_AT_EPOCH": 65183, "BSTAR": 0.0010358067, "MEAN_MOTION_DOT": 4.776e-05, "MEAN_MOTION_DDOT": 0}, "tle": {"line1": "1 35890U 93036AUD 25348.96353947  .00004776  00000+0  10358-2 0  9996", "line2": "2 35890  73.9366 238.4477 0053842   2.6653 357.4787 14.57520492651833"}}, "geometry": {"type": "Point", "coordinates": [72.93866644068697, -45.312798955386576]}}, {"type": "Feature", "properties": {"norad_id": 35891, "name": "COSMOS 2251 DEB", "group": "cosmos-2251-debris", "lat": 1.3812621653197112, "lon": 86.7540791264955, "alt_km": 491.80784459056395, "timestamp": "2025-12-16T05:49:09.610111+00:00", "meta": {"OBJECT_NAME": "COSMOS 2251 DEB", "OBJECT_ID": "1993-036AUE", "EPOCH": "2025-12-15T00:03:56.102688", "MEAN_MOTION": 15.335426, "ECCENTRICITY": 0.00432858, "INCLINATION": 73.9883, "RA_OF_ASC_NODE": 89.017, "ARG_OF_PERICENTER": 219.4473, "MEAN_ANOMALY": 140.3579, "EPHEMERIS_TYPE": 0, "CLASSIFICATION_TYPE": "U", "NORAD_CAT_ID": 35891, "ELEMENT_SET_NO": 999, "REV_AT_EPOCH": 67255, "BSTAR": 0.00088892356, "MEAN_MOTION_DOT": 0.00029776, "MEAN_MOTION_DDOT": 0}, "tle": {"line1": "1 35891U 93036AUE 25349.00273267  .00029776  00000+0  88892-3 0  9995", "line2": "2 35891  73.9883  89.0170 0043285 219.4473 140.3579 15.33542600672556"}}, "geometry": {"type": "Point", "coordinates": [86.7540791264955, 1.3812621653197112]}}, {"type": "Feature", "properties": {"norad_id": 35895, "name": "COSMOS 2251 DEB", "group": "cosmos-2251-debris", "lat": 73.04451353049548, "lon": 91.87501427613091, "alt_km": 742.5233148234292, "timestamp": "2025-12-16T05:49:09.610121+00:00", "meta": {"OBJECT_NAME": "COSMOS 2251 DEB", "OBJECT_ID": "1993-036AUJ", "EPOCH": "2025-12-11T07:10:31.732032", "MEAN_MOTION": 14.01513994, "ECCENTRICITY": 0.01987879, "INCLINATION": 74.0502, "RA_OF_ASC_NODE": 350.1634, "ARG_OF_PERICENTER": 88.7843, "MEAN_ANOMALY": 273.6056, "EPHEMERIS_TYPE": 0, "CLASSIFICATION_TYPE": "U", "NORAD_CAT_ID": 35895, "ELEMENT_SET_NO": 999, "REV_AT_EPOCH": 58992, "BSTAR": 0.0020881347, "MEAN_MOTION_DOT": 3.73e-05, "MEAN_MOTION_DDOT": 0}, "tle": {"line1": "1 35895U 93036AUJ 25345.29897838  .00003730  00000+0  20881-2 0  9997", "line2": "2 35895  74.0502 350.1634 0198787  88.7843 273.6056 14.01513994589929"}}, "geometry": {"type": "Point", "coordinates": [91.87501427613091, 73.04451353049548]}}, {"type": "Feature", "properties": {"norad_id": 35898, "name": "COSMOS 2251 DEB", "group": "cosmos-2251-debris", "lat": 50.762500432232734, "lon": -49.03990880043226, "alt_km": 525.9816230353017, "timestamp": "2025-12-16T05:49:09.610131+00:00", "meta": {"OBJECT_NAME": "COSMOS 2251 DEB", "OBJECT_ID": "1993-036AUM", "EPOCH": "2025-12-11T03:33:58.696128", "MEAN_MOTION": 14.94658859, "ECCENTRICITY": 0.00792199, "INCLINATION": 73.9916, "RA_OF_ASC_NODE": 300.6702, "ARG_OF_PERICENTER": 84.5945, "MEAN_ANOMALY": 290.8859, "EPHEMERIS_TYPE": 0, "CLASSIFICATION_TYPE": "U", "NORAD_CAT_ID": 35898, "ELEMENT_SET_NO": 999, "REV_AT_EPOCH": 66786, "BSTAR": 0.001087469, "MEAN_MOTION_DOT": 0.00012532, "MEAN_MOTION_DDOT": 0}, "tle": {"line1": "1 35898U 93036AUM 25345.14859602  .00012532  00000+0  10875-2 0  9993", "line2": "2 35898  73.9916 300.6702 0079219  84.5945 290.8859 14.94658859667864"}}, "geometry": {"type": "Point", "coordinates": [-49.03990880043226, 50.762500432232734]}}, {"type": "Feature", "properties": {"norad_id": 35901, "name": "COSMOS 2251 DEB", "group": "cosmos-2251-debris", "lat": -33.31956624322552, "lon": -153.47689864083435, "alt_km": 553.7692228003934, "timestamp": "2025-12-16T05:49:09.610141+00:00", "meta": {"OBJECT_NAME": "COSMOS 2251 DEB", "OBJECT_ID": "1993-036AUQ", "EPOCH": "2025-12-15T20:06:01.289952", "MEAN_MOTION": 15.07340921, "ECCENTRICITY": 0.00072982, "INCLINATION": 74.0115, "RA_OF_ASC_NODE": 16.4921, "ARG_OF_PERICENTER": 352.2547, "MEAN_ANOMALY": 186.0014, "EPHEMERIS_TYPE": 0, "CLASSIFICATION_TYPE": "U", "NORAD_CAT_ID": 35901, "ELEMENT_SET_NO": 999, "REV_AT_EPOCH": 86173, "BSTAR": 0.0020140959, "MEAN_MOTION_DOT": 0.00030555, "MEAN_MOTION_DDOT": 0}, "tle": {"line1": "1 35901U 93036AUQ 25349.83751493  .00030555  00000+0  20141-2 0  9999", "line2": "2 35901  74.0115  16.4921 0007298 352.2547 186.0014 15.07340921861732"}}, "geometry": {"type": "Point", "coordinates": [-153.47689864083435, -33.31956624322552]}}, {"type": "Feature", "properties": {"norad_id": 35902, "name": "COSMOS 2251 DEB", "group": "cosmos-2251-debris", "lat": -27.505370261048537, "lon": 56.82884246721444, "alt_km": 857.4968109037591, "timestamp": "2025-12-16T05:49:09.610151+00:00", "meta": {"OBJECT_NAME": "COSMOS 2251 DEB", "OBJECT_ID": "1993-036AUR", "EPOCH": "2025-12-12T01:33:56.017152", "MEAN_MOTION": 14.26898947, "ECCENTRICITY": 0.01020569, "INCLINATION": 73.9828, "RA_OF_ASC_NODE": 235.8058, "ARG_OF_PERICENTER": 350.6999, "MEAN_ANOMALY": 9.2255, "EPHEMERIS_TYPE": 0, "CLASSIFICATION_TYPE": "U", "NORAD_CAT_ID": 35902, "ELEMENT_SET_NO": 999, "REV_AT_EPOCH": 61120, "BSTAR": 0.0016300387, "MEAN_MOTION_DOT": 4.159e-05, "MEAN_MOTION_DDOT": 0}, "tle": {"line1": "1 35902U 93036AUR 25346.06523168  .00004159  00000+0  16300-2 0  9991", "line2": "2 35902  73.9828 235.8058 0102056 350.6999   9.2255 14.26898947611205"}}, "geometry": {"type": "Point", "coordinates": [56.82884246721444, -27.505370261048537]}}, {"type": "Feature", "properties": {"norad_id": 35905, "name": "COSMOS 2251 DEB", "group": "cosmos-2251-debris", "lat": -7.866148047789155, "lon": -158.56494976305115, "alt_km": 550.3357286640576, "timestamp": "2025-12-16T05:49:09.610161+00:00", "meta": {"OBJECT_NAME": "COSMOS 2251 DEB", "OBJECT_ID": "1993-036AUU", "EPOCH": "2025-12-15T07:25:55.531200", "MEAN_MOTION": 14.99062217, "ECCENTRICITY": 0.00907412, "INCLINATION": 74.032, "RA_OF_ASC_NODE": 205.5952, "ARG_OF_PERICENTER": 285.0687, "MEAN_ANOMALY": 74.0472, "EPHEMERIS_TYPE": 0, "CLASSIFICATION_TYPE": "U", "NORAD_CAT_ID": 35905, "ELEMENT_SET_NO": 999, "REV_AT_EPOCH": 88621, "BSTAR": 0.0003271254, "MEAN_MOTION_DOT": 4.283e-05, "MEAN_MOTION_DDOT": 0}, "tle": {"line1": "1 35905U 93036AUU 25349.30967050  .00004283  00000+0  32713-3 0  9991", "line2": "2 35905  74.0320 205.5952 0090741 285.0687  74.0472 14.99062217886215"}}, "geometry": {"type": "Point", "coordinates": [-158.56494976305115, -7.866148047789155]}}, {"type": "Feature", "properties": {"norad_id": 35959, "name": "COSMOS 2251 DEB", "group": "cosmos-2251-debris", "lat": 23.95784172140106, "lon": -47.03949816320459, "alt_km": 761.4996260706712, "timestamp": "2025-12-16T05:49:09.610171+00:00", "meta": {"OBJECT_NAME": "COSMOS 2251 DEB", "OBJECT_ID": "1993-036AUZ", "EPOCH": "2025-12-15T21:19:58.666080", "MEAN_MOTION": 14.34138332, "ECCENTRICITY": 0.002165, "INCLINATION": 74.0326, "RA_OF_ASC_NODE": 306.2984, "ARG_OF_PERICENTER": 25.8592, "MEAN_ANOMALY": 334.3636, "EPHEMERIS_TYPE": 0, "CLASSIFICATION_TYPE": "U", "NORAD_CAT_ID": 35959, "ELEMENT_SET_NO": 999, "REV_AT_EPOCH": 84973, "BSTAR": 0.000121627, "MEAN_MOTION_DOT": 3.15e-06, "MEAN_MOTION_DDOT": 0}, "tle": {"line1": "1 35959U 93036AUZ 25349.88887345  .00000315  00000+0  12163-3 0  9990", "line2": "2 35959  74.0326 306.2984 0021650  25.8592 334.3636 14.34138332849733"}}, "geometry": {"type": "Point", "coordinates": [-47.03949816320459, 23.95784172140106]}}, {"type": "Feature", "properties": {"norad_id": 35961, "name": "COSMOS 2251 DEB", "group": "cosmos-2251-debris", "lat": -43.54143206596448, "lon": -177.88401954739575, "alt_km": 1020.388034895157, "timestamp": "2025-12-16T05:49:09.610181+00:00", "meta": {"OBJECT_NAME": "COSMOS 2251 DEB", "OBJECT_ID": "1993-036AVB", "EPOCH": "2025-12-13T08:00:02.001600", "MEAN_MOTION": 14.05391131, "ECCENTRICITY": 0.01919644, "INCLINATION": 73.9252, "RA_OF_ASC_NODE": 203.1346, "ARG_OF_PERICENTER": 136.4306, "MEAN_ANOMALY": 225.2177, "EPHEMERIS_TYPE": 0, "CLASSIFICATION_TYPE": "U", "NORAD_CAT_ID": 35961, "ELEMENT_SET_NO": 999, "REV_AT_EPOCH": 62690, "BSTAR": 0.0012957736, "MEAN_MOTION_DOT": 2.456e-05, "MEAN_MOTION_DDOT": 0}, "tle": {"line1": "1 35961U 93036AVB 25347.33335650  .00002456  00000+0  12958-2 0  9997", "line2": "2 35961  73.9252 203.1346 0191964 136.4306 225.2177 14.05391131626903"}}, "geometry": {"type": "Point", "coordinates": [-177.88401954739575, -43.54143206596448]}}]}